{
  "type": "FeatureCollection",
  "features": [
    {
      "type": "Feature",
      "properties": {
        "norad_id": 35616,
        "name": "IRIDIUM 33 DEB",
        "group": "iridium-33-debris",
        "lat": -52.1645887473747,
        "lon": 174.7476536813436,
        "alt_km": 626.933905213823,
        "timestamp": "2025-12-03T08:58:46.387782+00:00",
        "meta_object_name": "IRIDIUM 33 DEB",
        "meta_object_id": "1997-051QN",
        "meta_epoch": "2025-12-01T18:38:49.911648",
        "meta_mean_motion": 14.81359224,
        "meta_eccentricity": 0.00086191,
        "meta_inclination": 86.3548,
        "meta_ra_of_asc_node": 350.7677,
        "meta_arg_of_pericenter": 204.4295,
        "meta_mean_anomaly": 155.6519,
        "meta_ephemeris_type": 0,
        "meta_classification_type": "U",
        "meta_norad_cat_id": 35616,
        "meta_element_set_no": 999,
        "meta_rev_at_epoch": 87412,
        "meta_bstar": 0.0016385024,
        "meta_mean_motion_dot": 0.00012841,
        "meta_mean_motion_ddot": 0,
        "tle_line1": "1 35616U 97051QN  25335.77696657  .00012841  00000+0  16385-2 0  9994",
        "tle_line2": "2 35616  86.3548 350.7677 0008619 204.4295 155.6519 14.81359224874125"
      },
      "geometry": {
        "type": "Point",
        "coordinates": [
          174.7476536813436,
          -52.1645887473747
        ]
      }
    },
    {
      "type": "Feature",
      "properties": {
        "norad_id": 35618,
        "name": "IRIDIUM 33 DEB",
        "group": "iridium-33-debris",
        "lat": -84.56467486889684,
        "lon": -140.14668011350432,
        "alt_km": 743.7992834969618,
        "timestamp": "2025-12-03T08:58:46.387801+00:00",
        "meta_object_name": "IRIDIUM 33 DEB",
        "meta_object_id": "1997-051QQ",
        "meta_epoch": "2025-11-27T19:27:47.606688",
        "meta_mean_motion": 14.52216193,
        "meta_eccentricity": 0.00308317,
        "meta_inclination": 86.3414,
        "meta_ra_of_asc_node": 0.0275,
        "meta_arg_of_pericenter": 70.0508,
        "meta_mean_anomaly": 290.4015,
        "meta_ephemeris_type": 0,
        "meta_classification_type": "U",
        "meta_norad_cat_id": 35618,
        "meta_element_set_no": 999,
        "meta_rev_at_epoch": 65177,
        "meta_bstar": 0.00046503481,
        "meta_mean_motion_dot": 1.919e-05,
        "meta_mean_motion_ddot": 0,
        "tle_line1": "1 35618U 97051QQ  25331.81096767  .00001919  00000+0  46503-3 0  9993",
        "tle_line2": "2 35618  86.3414   0.0275 0030831  70.0508 290.4015 14.52216193651771"
      },
      "geometry": {
        "type": "Point",
        "coordinates": [
          -140.14668011350432,
          -84.56467486889684
        ]
      }
    },
    {
      "type": "Feature",
      "properties": {
        "norad_id": 35620,
        "name": "IRIDIUM 33 DEB",
        "group": "iridium-33-debris",
        "lat": 17.75803744424087,
        "lon": -137.43909897095534,
        "alt_km": 762.5357144330965,
        "timestamp": "2025-12-03T08:58:46.387821+00:00",
        "meta_object_name": "IRIDIUM 33 DEB",
        "meta_object_id": "1997-051QS",
        "meta_epoch": "2025-12-02T22:52:25.088160",
        "meta_mean_motion": 14.37465338,
        "meta_eccentricity": 0.0145309,
        "meta_inclination": 86.388,
        "meta_ra_of_asc_node": 221.5792,
        "meta_arg_of_pericenter": 291.0856,
        "meta_mean_anomaly": 67.4857,
        "meta_ephemeris_type": 0,
        "meta_classification_type": "U",
        "meta_norad_cat_id": 35620,
        "meta_element_set_no": 999,
        "meta_rev_at_epoch": 59825,
        "meta_bstar": 0.0076536,
        "meta_mean_motion_dot": 0.00025951,
        "meta_mean_motion_ddot": 0,
        "tle_line1": "1 35620U 97051QS  25336.95306815  .00025951  00000+0  76536-2 0  9994",
        "tle_line2": "2 35620  86.3880 221.5792 0145309 291.0856  67.4857 14.37465338598252"
      },
      "geometry": {
        "type": "Point",
        "coordinates": [
          -137.43909897095534,
          17.75803744424087
        ]
      }
    },
    {
      "type": "Feature",
      "properties": {
        "norad_id": 35622,
        "name": "IRIDIUM 33 DEB",
        "group": "iridium-33-debris",
        "lat": 39.79309615810931,
        "lon": -88.62095812943092,
        "alt_km": 549.8402062991954,
        "timestamp": "2025-12-03T08:58:46.387839+00:00",
        "meta_object_name": "IRIDIUM 33 DEB",
        "meta_object_id": "1997-051QU",
        "meta_epoch": "2025-12-02T06:19:13.217952",
        "meta_mean_motion": 15.02606041,
        "meta_eccentricity": 0.0010695,
        "meta_inclination": 86.2044,
        "meta_ra_of_asc_node": 268.7542,
        "meta_arg_of_pericenter": 2.5731,
        "meta_mean_anomaly": 152.2822,
        "meta_ephemeris_type": 0,
        "meta_classification_type": "U",
        "meta_norad_cat_id": 35622,
        "meta_element_set_no": 999,
        "meta_rev_at_epoch": 87202,
        "meta_bstar": 0.0056995,
        "meta_mean_motion_dot": 0.00076695,
        "meta_mean_motion_ddot": 0,
        "tle_line1": "1 35622U 97051QU  25336.26334743  .00076695  00000+0  56995-2 0  9999",
        "tle_line2": "2 35622  86.2044 268.7542 0010695   2.5731 152.2822 15.02606041872023"
      },
      "geometry": {
        "type": "Point",
        "coordinates": [
          -88.62095812943092,
          39.79309615810931
        ]
      }
    },
    {
      "type": "Feature",
      "properties": {
        "norad_id": 35628,
        "name": "IRIDIUM 33 DEB",
        "group": "iridium-33-debris",
        "lat": 11.519412505803142,
        "lon": 13.995903466391443,
        "alt_km": 662.8186063503317,
        "timestamp": "2025-12-03T08:58:46.387851+00:00",
        "meta_object_name": "IRIDIUM 33 DEB",
        "meta_object_id": "1997-051RA",
        "meta_epoch": "2025-12-02T19:50:02.046048",
        "meta_mean_motion": 14.67345428,
        "meta_eccentricity": 0.0011633,
        "meta_inclination": 86.3582,
        "meta_ra_of_asc_node": 13.4962,
        "meta_arg_of_pericenter": 17.351,
        "meta_mean_anomaly": 342.81,
        "meta_ephemeris_type": 0,
        "meta_classification_type": "U",
        "meta_norad_cat_id": 35628,
        "meta_element_set_no": 999,
        "meta_rev_at_epoch": 86301,
        "meta_bstar": 0.0016794,
        "meta_mean_motion_dot": 9.517e-05,
        "meta_mean_motion_ddot": 0,
        "tle_line1": "1 35628U 97051RA  25336.82641257  .00009517  00000+0  16794-2 0  9990",
        "tle_line2": "2 35628  86.3582  13.4962 0011633  17.3510 342.8100 14.67345428863014"
      },
      "geometry": {
        "type": "Point",
        "coordinates": [
          13.995903466391443,
          11.519412505803142
        ]
      }
    },
    {
      "type": "Feature",
      "properties": {
        "norad_id": 35631,
        "name": "IRIDIUM 33 DEB",
        "group": "iridium-33-debris",
        "lat": -47.420091965891196,
        "lon": -151.02792237065728,
        "alt_km": 739.5146585463535,
        "timestamp": "2025-12-03T08:58:46.387861+00:00",
        "meta_object_name": "IRIDIUM 33 DEB",
        "meta_object_id": "1997-051RD",
        "meta_epoch": "2025-12-01T09:32:13.809120",
        "meta_mean_motion": 14.47260749,
        "meta_eccentricity": 0.00179714,
        "meta_inclination": 86.3683,
        "meta_ra_of_asc_node": 25.8593,
        "meta_arg_of_pericenter": 152.8458,
        "meta_mean_anomaly": 221.75,
        "meta_ephemeris_type": 0,
        "meta_classification_type": "U",
        "meta_norad_cat_id": 35631,
        "meta_element_set_no": 999,
        "meta_rev_at_epoch": 87033,
        "meta_bstar": 0.00039861832,
        "meta_mean_motion_dot": 1.48e-05,
        "meta_mean_motion_ddot": 0,
        "tle_line1": "1 35631U 97051RD  25335.39738205  .00001480  00000+0  39862-3 0  9998",
        "tle_line2": "2 35631  86.3683  25.8593 0017971 152.8458 221.7500 14.47260749870336"
      },
      "geometry": {
        "type": "Point",
        "coordinates": [
          -151.02792237065728,
          -47.420091965891196
        ]
      }
    },
    {
      "type": "Feature",
      "properties": {
        "norad_id": 35680,
        "name": "IRIDIUM 33 DEB",
        "group": "iridium-33-debris",
        "lat": 11.613562803333746,
        "lon": 26.47193195725496,
        "alt_km": 774.4204702076922,
        "timestamp": "2025-12-03T08:58:46.387873+00:00",
        "meta_object_name": "IRIDIUM 33 DEB",
        "meta_object_id": "1997-051RJ",
        "meta_epoch": "2025-12-01T22:00:09.279648",
        "meta_mean_motion": 14.20616647,
        "meta_eccentricity": 0.01501261,
        "meta_inclination": 86.103,
        "meta_ra_of_asc_node": 26.3138,
        "meta_arg_of_pericenter": 313.2693,
        "meta_mean_anomaly": 168.1986,
        "meta_ephemeris_type": 0,
        "meta_classification_type": "U",
        "meta_norad_cat_id": 35680,
        "meta_element_set_no": 999,
        "meta_rev_at_epoch": 60547,
        "meta_bstar": 0.0036692718,
        "meta_mean_motion_dot": 8.864e-05,
        "meta_mean_motion_ddot": 0,
        "tle_line1": "1 35680U 97051RJ  25335.91677407  .00008864  00000+0  36693-2 0  9997",
        "tle_line2": "2 35680  86.1030  26.3138 0150126 313.2693 168.1986 14.20616647605475"
      },
      "geometry": {
        "type": "Point",
        "coordinates": [
          26.47193195725496,
          11.613562803333746
        ]
      }
    }
  ]
}